#aV2022  3 11  0  0  0.00000000     288 DD+AD WGS84 FIT  NGA
## 2200 432000.00000000   300.00000000 59649 0.0000000000000
+   32     1  2  3  4  5  6  7  8  9 10 11 12 13 14 15 16 17
+         18 19 20 21 22 23 24 25 26 27 28 29 30 31 32  0  0
+          0  0  0  0  0  0  0  0  0  0  0  0  0  0  0  0  0
+          0  0  0  0  0  0  0  0  0  0  0  0  0  0  0  0  0
+          0  0  0  0  0  0  0  0  0  0  0  0  0  0  0  0  0
++         2  2  2  2  2  2  2  2  2  2  2  2  2  2  2  2  2
++         2  2  2  2  2  2  2  2  2  2  2  2  2  2  2  0  0
++         0  0  0  0  0  0  0  0  0  0  0  0  0  0  0  0  0
++         0  0  0  0  0  0  0  0  0  0  0  0  0  0  0  0  0
++         0  0  0  0  0  0  0  0  0  0  0  0  0  0  0  0  0
%c cc cc ccc ccc cccc cccc cccc cccc ccccc ccccc ccccc ccccc
%c cc cc ccc ccc cccc cccc cccc cccc ccccc ccccc ccccc ccccc
%f  0.0000000  0.000000000  0.00000000000  0.000000000000000
%f  0.0000000  0.000000000  0.00000000000  0.000000000000000
%i    0    0    0    0      0      0      0      0         0
%i    0    0    0    0      0      0      0      0         0
/*      NGA, ST. LOUIS,MO.                                  
/*   EPHEMERIS COMPUTED FROM 2 DAYS OF DATA                 
/*   EPOCHA v7 SMOOTHER                                     
/*   G2139 IERS2010 SATIGS SATAPC                           
*  2022  3 11  6 35  0.00000000
P  1 -13610.689943  22465.311641  -2578.421679    411.749727                    
V  1  -3528.960474   1132.924358  32343.570111     -0.091820                    
P  2  18335.370320  -9909.522674 -15881.925932   -652.101791                    
V  2  -8929.112891  19475.649596 -21443.426916     -0.004918                    
P  3 -11092.519920  13085.152617 -20349.701566   -158.118341                    
V  3 -25465.822102  -2850.006999  12217.201248     -0.179266                    
P  4  -4040.630162  20048.025607 -16894.574045   -184.435147                    
V  4 -10340.253886 -18934.510418 -20068.117082      0.025915                    
P  5  24183.039201  -5781.009226   9389.152256    -74.262970                    
V  5  12016.984091   2899.949810 -28524.239258     -0.013464                    
P  6  12700.582768   7306.700836 -22086.412276    227.492703                    
V  6 -15871.076876  23229.711422  -1361.644381      0.126424                    
P  7   -759.819707  21239.350096  15999.172382    315.372985                    
V  7 -13165.053522  15027.845612 -21576.809066      0.020692                    
P  8 -11127.381112  10904.382195  21437.968204    -59.379461                    
V  8 -12959.291453 -24070.441933   5853.372037     -0.015192                    
P  9   5845.388381  24550.710591  -8293.194749   -350.371146                    
V  9  -7225.564616  -8062.970298 -29230.217173      0.019740                    
P 10 -18716.689334 -11681.823476  15141.593453   -343.469152                    
V 10  18892.460312   -208.321974  23132.006492     -0.113168                    
P 11  19706.340086  -6984.257128 -16378.317491    -65.400207                    
V 11 -11169.227382  17633.100556 -20972.389641      0.099431                    
P 12  14979.322476 -11076.380338 -19146.915993   -183.124155                    
V 12  23339.236055   4685.098032  15896.706755     -0.057536                    
P 13  15046.673288  -1859.980801  21667.533146    274.930578                    
V 13   8432.102307  26529.597343  -3393.788235      0.063283                    
P 14  17453.403748  12941.584249  15319.211712    -92.677013                    
V 14 -19568.726680    -97.628657  22294.344561     -0.038082                    
P 15   9876.094589 -12917.917292  20549.296509    -77.689817                    
V 15  15633.245568  22278.993022   6683.280566      0.029102                    
P 16 -26074.042011   -179.323979   5943.439961   -479.286529                    
V 16  -7346.460407  -3349.881943 -30463.877776     -0.044528                    
P 17  13551.745563  21757.828703  -6425.599677    585.701808                    
V 17   1232.279836   8921.176300  30796.099146      0.049275                    
P 18   1794.760102 -21216.029316  15808.457081    222.502913                    
V 18  13094.842729 -15352.778731 -22184.421874     -0.086582                    
P 19  15862.677030  16420.281180 -13990.987275    129.485083                    
V 19   4340.324286  16733.785050  24845.055465      0.049858                    
P 20  26355.517917  -1917.234371   -317.791712    516.350308                    
V 20   -112.345931   3655.556314 -31482.397161     -0.001724                    
P 21 -17471.374389  17580.602830   9240.178457    159.229706                    
V 21   2879.261260 -11035.202681  29136.566827      0.004876                    
P 22 -16641.882585 -13754.381054 -15186.708626    225.730565                    
V 22  -5296.750784 -19322.765390  22524.402248      0.058047                    
P 23  -7448.116431 -14712.379462  20831.595960     -5.812238                    
V 23  26437.724528    466.845677   9684.395315     -0.032551                    
P 24  14435.561357 -21879.012447   2252.290100    269.045210                    
V 24   1861.639672   4818.456993  31251.729653     -0.032561                    
P 25    519.840197 -15426.917760 -21904.788683    296.708813                    
V 25  27073.446828   1922.946959   -445.202019      0.052114                    
P 26 -25447.183933  -5201.687099  -6373.707686    189.852556                    
V 26   8003.893674  -2941.866145 -29645.933101      0.030580                    
P 27 -16430.259675  -1636.522415  20690.746528    149.964357                    
V 27 -11019.006538 -24221.091771 -10177.315720      0.130925                    
P 28  22887.032460  10152.353581   9025.484410    383.040583                    
V 28 -11048.287314    576.834123  29258.887342     -0.082726                    
P 29  -2430.582369 -24464.215797 -10027.868102   -489.954950                    
V 29   6445.070557  11061.070821 -28737.357007     -0.045257                    
P 30   6557.131946  16218.106771  19991.851934   -518.054502                    
V 30 -15799.656533  19917.072395 -11263.376930     -0.020976                    
P 31 -15066.942881  -5033.025320 -21466.283372   -168.402453                    
V 31  15429.265783 -22062.890575  -5229.175479     -0.017287                    
P 32 -16561.524827 -18521.815508  -9509.081144    -82.557179                    
V 32  -3155.919514 -12060.087964  28392.062032     -0.073050                    
EOF
